SL-16 R/B               
1 22566U 93016B   25343.45395658 -.00000146  00000+0 -50617-4 0  9997
2 22566  71.0087  44.7051 0007840 103.9219 256.2776 14.15287344689402
COSMOS 2242             
1 22626U 93024A   25343.49228068  .00003404  00000+0  30009-3 0  9997
2 22626  82.5188 352.9486 0014824 246.2238 113.7430 14.96085598766907
SL-16 R/B               
1 22803U 93059B   25343.55593538  .00000062  00000+0  54235-4 0  9991
2 22803  70.9896 201.2000 0017807 340.1398  19.9030 14.17213552666766
ARIANE 40 R/B           
1 22830U 93061H   25343.47575597  .00000535  00000+0  21192-3 0  9990
2 22830  98.5080  49.0651 0010686 185.5698 174.5369 14.32798567681186
COSMOS 2278             
1 23087U 94023A   25343.49472109 -.00000108  00000+0 -31843-4 0  9994
2 23087  71.0545   3.8004 0008488 184.9129 175.1912 14.14351144632051
SL-16 R/B               
1 23088U 94023B   25343.51166305  .00000201  00000+0  12818-3 0  9998
2 23088  71.0010 260.2644 0001207  40.0639 320.0573 14.15002139633332
SL-16 R/B               
1 23343U 94074B   25343.35106870  .00000926  00000+0  13107-3 0  9997
2 23343  97.7204  12.7902 0007306 145.5563 225.8118 14.79284166673890
SL-16 R/B               
1 23405U 94077B   25343.31643781  .00000260  00000+0  15727-3 0  9993
2 23405  70.9812 182.6156 0004597 286.6616  73.4002 14.15547587603442
ARIANE 40+ R/B          
1 23561U 95021B   25343.19154116  .00000506  00000+0  17569-3 0  9990
2 23561  98.4654  50.8231 0007610  59.2908 358.8760 14.39691045606226
SL-16 R/B               
1 23705U 95058B   25343.46029606  .00000224  00000+0  13888-3 0  9992
2 23705  71.0225   9.6896 0014939 259.3406 100.6035 14.15482917555089
SL-16 R/B               
1 24298U 96051B   25343.51408912  .00000042  00000+0  49514-4 0  9995
2 24298  70.7595   6.1120 0019341 265.2914  94.5997 14.12396196508915
ORBVIEW 2 (SEASTAR)     
1 24883U 97037A   25343.43000916  .00000627  00000+0  23462-3 0  9995
2 24883  98.8455 140.4212 0001814 352.6588   7.4569 14.35413712495528
